start=new Date('2021-09-30T00:00:00.000Z').valueOf();
sats=[{"ECCENTRICITY":"0.00007030","INCLINATION":"53.0550","REV_AT_EPOCH":"7168","TIME_SYSTEM":"UTC","GP_ID":"185790942","OBJECT_TYPE":"PAYLOAD","MEAN_MOTION":"15.06396571","ELEMENT_SET_NO":"999","MEAN_MOTION_DDOT":"0.0000000000000","BSTAR":"0.00011355000000","EPHEMERIS_TYPE":"0","CLASSIFICATION_TYPE":"U","ARG_OF_PERICENTER":"104.9262","COUNTRY_CODE":"US","RCS_SIZE":"LARGE","LAUNCH_DATE":"2020-06-13","PERIOD":"95.592","OBJECT_ID":"2020-038T","NORAD_CAT_ID":"45747","MEAN_ANOMALY":"255.1805","MEAN_MOTION_DOT":"0.00001410","REF_FRAME":"TEME","TLE_LINE1":"1 45747U 20038T   21272.43736681  .00001410  00000-0  11355-3 0  9996","FILE":"3134986","OBJECT_NAME":"STARLINK-1506","MEAN_ELEMENT_THEORY":"SGP4","TLE_LINE2":"2 45747  53.0550 319.1970 0000703 104.9262 255.1805 15.06396571 71682","CENTER_NAME":"EARTH","SITE":"AFETR","EPOCH":"2021-09-29T10:29:48.492384","APOAPSIS":"547.711","RA_OF_ASC_NODE":"319.1970","DECAY_DATE":null,"PERIAPSIS":"546.737","SEMIMAJOR_AXIS":"6925.359"},{"ECCENTRICITY":"0.00012440","INCLINATION":"53.0541","GP_ID":"185790693","TIME_SYSTEM":"UTC","REV_AT_EPOCH":"7167","MEAN_MOTION":"15.06399539","OBJECT_TYPE":"PAYLOAD","EPHEMERIS_TYPE":"0","BSTAR":"0.00000528860000","MEAN_MOTION_DDOT":"0.0000000000000","ELEMENT_SET_NO":"999","ARG_OF_PERICENTER":"97.8553","CLASSIFICATION_TYPE":"U","RCS_SIZE":"LARGE","COUNTRY_CODE":"US","NORAD_CAT_ID":"45748","MEAN_ANOMALY":"262.2578","OBJECT_ID":"2020-038U","PERIOD":"95.592","LAUNCH_DATE":"2020-06-13","MEAN_MOTION_DOT":"-0.00000203","REF_FRAME":"TEME","FILE":"3134986","OBJECT_NAME":"STARLINK-1507","MEAN_ELEMENT_THEORY":"SGP4","TLE_LINE1":"1 45748U 20038U   21272.42262276 -.00000203  00000-0  52886-5 0  9996","TLE_LINE2":"2 45748  53.0541 319.2724 0001244  97.8553 262.2578 15.06399539 71677","APOAPSIS":"548.076","SITE":"AFETR","EPOCH":"2021-09-29T10:08:34.606464","CENTER_NAME":"EARTH","DECAY_DATE":null,"PERIAPSIS":"546.353","SEMIMAJOR_AXIS":"6925.350","RA_OF_ASC_NODE":"319.2724"},{"TLE_LINE2":"2 45750  53.0560 299.1242 0001009  92.6131 267.4974 15.06389696 71979","EPOCH":"2021-09-29T10:53:42.076608","SITE":"AFETR","APOAPSIS":"547.944","CENTER_NAME":"EARTH","DECAY_DATE":null,"PERIAPSIS":"546.546","SEMIMAJOR_AXIS":"6925.380","RA_OF_ASC_NODE":"299.1242","MEAN_MOTION_DOT":"-0.00000087","REF_FRAME":"TEME","FILE":"3134986","OBJECT_NAME":"STARLINK-1391","MEAN_ELEMENT_THEORY":"SGP4","TLE_LINE1":"1 45750U 20038W   21272.45395922 -.00000087  00000-0  13071-4 0  9999","EPHEMERIS_TYPE":"0","ELEMENT_SET_NO":"999","MEAN_MOTION_DDOT":"0.0000000000000","BSTAR":"0.00001307100000","ARG_OF_PERICENTER":"92.6131","CLASSIFICATION_TYPE":"U","RCS_SIZE":"LARGE","COUNTRY_CODE":"US","OBJECT_ID":"2020-038W","MEAN_ANOMALY":"267.4974","NORAD_CAT_ID":"45750","LAUNCH_DATE":"2020-06-13","PERIOD":"95.593","ECCENTRICITY":"0.00010090","INCLINATION":"53.0560","GP_ID":"185789441","TIME_SYSTEM":"UTC","REV_AT_EPOCH":"7197","OBJECT_TYPE":"PAYLOAD","MEAN_MOTION":"15.06389696"},{"MEAN_MOTION_DOT":"0.00001011","REF_FRAME":"TEME","TLE_LINE1":"1 45751U 20038X   21272.78199462  .00001011  00000-0  86745-4 0  9992","FILE":"3135159","MEAN_ELEMENT_THEORY":"SGP4","OBJECT_NAME":"STARLINK-1464","TLE_LINE2":"2 45751  53.0530 297.6553 0000905  96.8708 263.2384 15.06404639 73139","CENTER_NAME":"EARTH","EPOCH":"2021-09-29T18:46:04.335168","SITE":"AFETR","APOAPSIS":"547.826","RA_OF_ASC_NODE":"297.6553","SEMIMAJOR_AXIS":"6925.334","DECAY_DATE":null,"PERIAPSIS":"546.573","ECCENTRICITY":"0.00009050","INCLINATION":"53.0530","TIME_SYSTEM":"UTC","REV_AT_EPOCH":"7313","GP_ID":"185797793","OBJECT_TYPE":"PAYLOAD","MEAN_MOTION":"15.06404639","MEAN_MOTION_DDOT":"0.0000000000000","ELEMENT_SET_NO":"999","BSTAR":"0.00008674500000","EPHEMERIS_TYPE":"0","CLASSIFICATION_TYPE":"U","ARG_OF_PERICENTER":"96.8708","COUNTRY_CODE":"US","RCS_SIZE":"LARGE","LAUNCH_DATE":"2020-06-13","PERIOD":"95.592","OBJECT_ID":"2020-038X","NORAD_CAT_ID":"45751","MEAN_ANOMALY":"263.2384"},{"SEMIMAJOR_AXIS":"6747.880","DECAY_DATE":null,"PERIAPSIS":"363.825","RA_OF_ASC_NODE":"115.3136","EPOCH":"2021-09-29T19:57:52.002432","SITE":"AFETR","APOAPSIS":"375.665","CENTER_NAME":"EARTH","TLE_LINE2":"2 45752  52.9960 115.3136 0008773 290.1961  69.8110 15.66216176 75669","FILE":"3135161","OBJECT_NAME":"STARLINK-1469","MEAN_ELEMENT_THEORY":"SGP4","TLE_LINE1":"1 45752U 20038Y   21272.83185188  .00001464  00000-0  19338-4 0  9995","REF_FRAME":"TEME","MEAN_MOTION_DOT":"0.00001464","OBJECT_ID":"2020-038Y","MEAN_ANOMALY":"69.8110","NORAD_CAT_ID":"45752","LAUNCH_DATE":"2020-06-13","PERIOD":"91.941","RCS_SIZE":"LARGE","COUNTRY_CODE":"US","ARG_OF_PERICENTER":"290.1961","CLASSIFICATION_TYPE":"U","EPHEMERIS_TYPE":"0","MEAN_MOTION_DDOT":"0.0000000000000","ELEMENT_SET_NO":"999","BSTAR":"0.00001933800000","OBJECT_TYPE":"PAYLOAD","MEAN_MOTION":"15.66216176","GP_ID":"185798096","REV_AT_EPOCH":"7566","TIME_SYSTEM":"UTC","INCLINATION":"52.9960","ECCENTRICITY":"0.00087730"},{"ECCENTRICITY":"0.00011280","INCLINATION":"53.0542","GP_ID":"185798092","TIME_SYSTEM":"UTC","REV_AT_EPOCH":"7313","MEAN_MOTION":"15.06393551","OBJECT_TYPE":"PAYLOAD","EPHEMERIS_TYPE":"0","BSTAR":"0.00004599600000","MEAN_MOTION_DDOT":"0.0000000000000","ELEMENT_SET_NO":"999","ARG_OF_PERICENTER":"81.9551","CLASSIFICATION_TYPE":"U","RCS_SIZE":"LARGE","COUNTRY_CODE":"US","MEAN_ANOMALY":"278.1566","NORAD_CAT_ID":"45753","OBJECT_ID":"2020-038Z","PERIOD":"95.593","LAUNCH_DATE":"2020-06-13","MEAN_MOTION_DOT":"0.00000404","REF_FRAME":"TEME","FILE":"3135161","OBJECT_NAME":"STARLINK-1476","MEAN_ELEMENT_THEORY":"SGP4","TLE_LINE1":"1 45753U 20038Z   21272.79305591  .00000404  00000-0  45996-4 0  9995","TLE_LINE2":"2 45753  53.0542 297.6022 0001128  81.9551 278.1566 15.06393551 73131","APOAPSIS":"548.015","SITE":"AFETR","EPOCH":"2021-09-29T19:02:00.030624","CENTER_NAME":"EARTH","DECAY_DATE":null,"PERIAPSIS":"546.452","SEMIMAJOR_AXIS":"6925.368","RA_OF_ASC_NODE":"297.6022"},{"CENTER_NAME":"EARTH","APOAPSIS":"547.908","EPOCH":"2021-09-29T19:07:18.968448","SITE":"AFETR","TLE_LINE2":"2 45754  53.0538 297.5921 0000996  81.1995 278.9107 15.06398419 72989","RA_OF_ASC_NODE":"297.5921","DECAY_DATE":null,"SEMIMAJOR_AXIS":"6925.353","PERIAPSIS":"546.529","MEAN_MOTION_DOT":"-0.00000056","TLE_LINE1":"1 45754U 20038AA  21272.79674732 -.00000056  00000-0  15111-4 0  9992","FILE":"3135170","OBJECT_NAME":"STARLINK-1477","MEAN_ELEMENT_THEORY":"SGP4","REF_FRAME":"TEME","CLASSIFICATION_TYPE":"U","ARG_OF_PERICENTER":"81.1995","BSTAR":"0.00001511100000","MEAN_MOTION_DDOT":"0.0000000000000","ELEMENT_SET_NO":"999","EPHEMERIS_TYPE":"0","PERIOD":"95.592","LAUNCH_DATE":"2020-06-13","NORAD_CAT_ID":"45754","MEAN_ANOMALY":"278.9107","OBJECT_ID":"2020-038AA","COUNTRY_CODE":"US","RCS_SIZE":"LARGE","INCLINATION":"53.0538","ECCENTRICITY":"0.00009960","MEAN_MOTION":"15.06398419","OBJECT_TYPE":"PAYLOAD","REV_AT_EPOCH":"7298","TIME_SYSTEM":"UTC","GP_ID":"185797820"},{"TLE_LINE2":"2 45755  53.0538 299.5938 0000788  80.5190 279.5888 15.06400179 71944","APOAPSIS":"547.759","EPOCH":"2021-09-29T08:25:04.312704","SITE":"AFETR","CENTER_NAME":"EARTH","DECAY_DATE":null,"PERIAPSIS":"546.667","SEMIMAJOR_AXIS":"6925.348","RA_OF_ASC_NODE":"299.5938","MEAN_MOTION_DOT":"0.00000035","REF_FRAME":"TEME","OBJECT_NAME":"STARLINK-1478","FILE":"3134986","MEAN_ELEMENT_THEORY":"SGP4","TLE_LINE1":"1 45755U 20038AB  21272.35074436  .00000035  00000-0  21208-4 0  9990","EPHEMERIS_TYPE":"0","BSTAR":"0.00002120800000","ELEMENT_SET_NO":"999","MEAN_MOTION_DDOT":"0.0000000000000","ARG_OF_PERICENTER":"80.5190","CLASSIFICATION_TYPE":"U","RCS_SIZE":"LARGE","COUNTRY_CODE":"US","NORAD_CAT_ID":"45755","MEAN_ANOMALY":"279.5888","OBJECT_ID":"2020-038AB","PERIOD":"95.592","LAUNCH_DATE":"2020-06-13","ECCENTRICITY":"0.00007880","INCLINATION":"53.0538","GP_ID":"185789692","REV_AT_EPOCH":"7194","TIME_SYSTEM":"UTC","MEAN_MOTION":"15.06400179","OBJECT_TYPE":"PAYLOAD"},{"CLASSIFICATION_TYPE":"U","ARG_OF_PERICENTER":"75.4540","MEAN_MOTION_DDOT":"0.0000000000000","ELEMENT_SET_NO":"999","BSTAR":"-0.00000028533000","EPHEMERIS_TYPE":"0","LAUNCH_DATE":"2020-06-13","PERIOD":"95.592","OBJECT_ID":"2020-038AC","NORAD_CAT_ID":"45756","MEAN_ANOMALY":"284.6551","COUNTRY_CODE":"US","RCS_SIZE":"LARGE","INCLINATION":"53.0546","ECCENTRICITY":"0.00009250","OBJECT_TYPE":"PAYLOAD","MEAN_MOTION":"15.06400128","REV_AT_EPOCH":"7313","TIME_SYSTEM":"UTC","GP_ID":"185797864","CENTER_NAME":"EARTH","EPOCH":"2021-09-29T19:28:32.538144","SITE":"AFETR","APOAPSIS":"547.854","TLE_LINE2":"2 45756  53.0546 297.5180 0000925  75.4540 284.6551 15.06400128 73137","RA_OF_ASC_NODE":"297.5180","DECAY_DATE":null,"SEMIMAJOR_AXIS":"6925.348","PERIAPSIS":"546.573","MEAN_MOTION_DOT":"-0.00000285","TLE_LINE1":"1 45756U 20038AC  21272.81148771 -.00000285  00000-0 -28533-6 0  9995","OBJECT_NAME":"STARLINK-1484","FILE":"3135164","MEAN_ELEMENT_THEORY":"SGP4","REF_FRAME":"TEME"},{"CLASSIFICATION_TYPE":"U","ARG_OF_PERICENTER":"74.8754","ELEMENT_SET_NO":"999","MEAN_MOTION_DDOT":"0.0000000000000","BSTAR":"-0.00002520900000","EPHEMERIS_TYPE":"0","LAUNCH_DATE":"2020-06-13","PERIOD":"95.592","OBJECT_ID":"2020-038AD","MEAN_ANOMALY":"285.2389","NORAD_CAT_ID":"45757","COUNTRY_CODE":"US","RCS_SIZE":"LARGE","INCLINATION":"53.0542","ECCENTRICITY":"0.00013870","OBJECT_TYPE":"PAYLOAD","MEAN_MOTION":"15.06395806","TIME_SYSTEM":"UTC","REV_AT_EPOCH":"7195","GP_ID":"185790694","CENTER_NAME":"EARTH","SITE":"AFETR","EPOCH":"2021-09-29T10:21:50.906880","APOAPSIS":"548.187","TLE_LINE2":"2 45757  53.0542 299.2268 0001387  74.8754 285.2389 15.06395806 71953","RA_OF_ASC_NODE":"299.2268","SEMIMAJOR_AXIS":"6925.361","DECAY_DATE":null,"PERIAPSIS":"546.266","MEAN_MOTION_DOT":"-0.00000657","TLE_LINE1":"1 45757U 20038AD  21272.43183920 -.00000657  00000-0 -25209-4 0  9997","FILE":"3134986","OBJECT_NAME":"STARLINK-1486","MEAN_ELEMENT_THEORY":"SGP4","REF_FRAME":"TEME"}];
